satname,norad_id,inclination_deg,eccentricity,mean_motion_rev_per_day,perigee_km,apogee_km,l1,l2
STARLINK-1451,45668,53.0517,0.0003189,15.07891729,540.4363560563324,544.8504297909385,1 45668U 20035M   26028.87443965  .00035176  00000+0  22749-2 0  9990,2 45668  53.0517 245.5185 0003189 124.7842 235.3448 15.07891729312735
STARLINK-1452,45669,53.0343,0.0004388,15.37907192,449.301746337439,455.29613691981194,1 45669U 20035N   26029.20082853  .00137892  00000+0  35895-2 0  9998,2 45669  53.0343 208.9282 0004388 198.1048 161.9799 15.37907192313277
STARLINK-1453,45670,53.0511,0.0005598,15.4402408,430.43355755876746,438.06070283093413,1 45670U 20035P   26029.58335647  .00138773  00000+0  29490-2 0  9996,2 45670  53.0511 200.5175 0005598 188.7954 130.5699 15.44024080  5936
STARLINK-1454,45671,53.0537,8.64e-05,15.42671194,437.64048027948866,438.81834839588646,1 45671U 20035Q   26029.58335647  .00122965  00000+0  27425-2 0  9999,2 45671  53.0537 239.6461 0000864 110.3057 154.1992 15.42671194  5831
STARLINK-1456,45673,53.0502,0.0006642,15.41376216,437.51673356086576,446.57666558737947,1 45673U 20035S   26028.93257643  .00158403  00000+0  36671-2 0  9997,2 45673  53.0502 236.0260 0006642 148.0945 212.0463 15.41376216312875
STARLINK-1457,45674,53.0501,8.11e-05,15.65995019,369.8313100187861,370.9259192514801,1 45674U 20035T   26029.58335647  .00255463  00000+0  23833-2 0  9991,2 45674  53.0501 216.6206 0000811 262.4065  55.9307 15.65995019  5970
STARLINK-1458,45675,53.0534,0.0001836,15.35054391,459.5033219401448,462.01456453050014,1 45675U 20035U   26029.58335647  .00187186  00000+0  53027-2 0  9996,2 45675  53.0534 240.3754 0001836 101.6366  89.0454 15.35054391  5837
STARLINK-1460,45676,53.0551,0.0001318,15.06388263,546.3347647052979,548.1602960675073,1 45676U 20035V   26028.82677019 -.00002048  00000+0 -11870-3 0  9991,2 45676  53.0551 245.5693 0001318  93.5453 266.5687 15.06388263312687
STARLINK-1392,45677,53.0532,0.0001184,15.06384311,546.4396759184638,548.0796098434976,1 45677U 20035W   26028.97053683  .00003738  00000+0  26978-3 0  9993,2 45677  53.0532 244.9233 0001184  95.0184 265.0940 15.06384311312742
STARLINK-1394,45679,53.0516,0.0006405,15.41617763,436.9664000320663,445.7021427307063,1 45679U 20035Y   26029.00002315  .00101311  00000+0  23475-2 0  9990,2 45679  53.0516 225.6339 0006405 149.3904  33.6149 15.41617763  5572
STARLINK-1402,45685,53.05,0.0009787,15.38123044,444.9755731137702,458.34421755670064,1 45685U 20035AE  26029.00002315  .00155149  00000+0  39958-2 0  9998,2 45685  53.0500 211.4833 0009787 134.8588 328.2523 15.38123044  5879
STARLINK-1404,45686,53.152,0.0001564,15.29189394,477.1618820149688,479.30655493210725,1 45686U 20035AF  26029.58335647  .00124995  00000+0  42934-2 0  9992,2 45686  53.1520 231.2622 0001564  86.5050  17.6786 15.29189394  5736
STARLINK-1413,45689,53.1538,0.0001699,15.2925439,476.87508074752714,479.20480967350977,1 45689U 20035AJ  26029.58335647  .00131524  00000+0  45040-2 0  9992,2 45689  53.1538 231.1950 0001699  98.9921 300.9462 15.29254390  5686
STARLINK-1417,45693,53.0513,0.0007661,15.10120361,530.5358108499768,541.1293950756371,1 45693U 20035AN  26028.91978670  .00031766  00000+0  19348-2 0  9991,2 45693  53.0513 234.2213 0007661 120.0207 240.1544 15.10120361312887
STARLINK-1420,45695,53.0539,0.0001075,15.42837352,437.0073001095716,438.4727136660522,1 45695U 20035AQ  26029.58335647  .01210048  00000+0  24656-1 0  9998,2 45695  53.0539 209.7699 0001075  92.6427 293.9801 15.42837352  5839
STARLINK-1422,45696,53.1342,0.0001573,15.24695195,490.6202315157807,492.7814825055966,1 45696U 20035AR  26029.58335647  .00788629  00000+0  29130-1 0  9995,2 45696  53.1342 231.0886 0001573  93.6419 326.6244 15.24695195  5836
STARLINK-1351,45697,53.0711,0.0001847,15.40616182,443.02948584529804,445.54969022691785,1 45697U 20035AS  26029.58335647  .01035462  00000+0  23041-1 0  9992,2 45697  53.0711 208.8473 0001847 106.1033 117.1293 15.40616182  5841
STARLINK-1398,45699,53.0417,0.0003156,15.75132849,342.13158438052596,346.37475705628276,1 45699U 20035AU  26029.58335647  .00163413  00000+0  10543-2 0  9995,2 45699  53.0417 136.6722 0003156 289.1446  34.5332 15.75132849  5854
STARLINK-1400,45700,53.0535,0.0001265,15.42974883,436.4728276181486,438.1971420303089,1 45700U 20035AV  26029.58335647  .00220768  00000+0  48047-2 0  9995,2 45700  53.0535 209.7124 0001265 106.5542 166.0526 15.42974883  5733
STARLINK-1403,45701,53.0542,0.0001148,15.06403468,546.4059002438989,547.9959578324051,1 45701U 20035AW  26029.19811779 -.00000667  00000+0 -25924-4 0  9995,2 45701  53.0542 213.9026 0001148  88.0961 272.0159 15.06403468313197
STARLINK-1407,45703,53.0361,0.0009631,15.53221992,400.79092950541235,413.8610883532119,1 45703U 20035AY  26029.58335647  .00130630  00000+0  20126-2 0  9994,2 45703  53.0361 145.2527 0009631 327.9753 358.8070 15.53221992  5960
STARLINK-1411,45706,53.0457,0.000138,15.54996474,401.22719765295824,403.0985604195712,1 45706U 20035BB  26028.92959074  .00094027  00000+0  13685-2 0  9991,2 45706  53.0457 174.6365 0001380 316.9603  43.1299 15.54996474313728
STARLINK-1423,45710,53.0547,0.0001241,15.43166521,435.9249905669785,437.6164506632349,1 45710U 20035BF  26029.58335647  .01204878  00000+0  24293-1 0  9997,2 45710  53.0547 209.3344 0001241  78.7340  89.0233 15.43166521  5841
STARLINK-1433,45711,53.0542,8.14e-05,15.46895686,425.25982157397175,426.3675047419338,1 45711U 20035BG  26029.58335647  .00053257  00000+0  10430-2 0  9999,2 45711  53.0542 208.9621 0000814  96.4731   0.7485 15.46895686  5737
STARLINK-1434,45712,53.0511,0.0002894,15.22177098,497.2848396630616,501.26548582285795,1 45712U 20035BH  26028.84287859  .00071211  00000+0  30476-2 0  9991,2 45712  53.0511 204.0050 0002894 107.6590 252.4722 15.22177098313315
STARLINK-1465,45731,53.0693,0.0001141,15.39021051,448.2239041101884,449.78185743097947,1 45731U 20038B   26029.58335647  .01120355  00000+0  26080-1 0  9996,2 45731  53.0693  49.8133 0001141  76.6498 127.7003 15.39021051  5836
STARLINK-1471,45735,53.0507,0.0003288,15.45533401,427.5727762728975,432.04968302871566,1 45735U 20038F   26028.99244450  .00033418  00000+0  69072-3 0  9997,2 45735  53.0507 331.8094 0003288 102.6969 257.4405 15.45533401311382
STARLINK-1474,45738,53.025,0.0005571,15.93977286,287.45012616849635,294.8810631194483,1 45738U 20038J   26029.58335647  .00358334  61153-4  95778-3 0  9995,2 45738  53.0250 263.6357 0005571 186.6587 343.0635 15.93977286  6057
STARLINK-1480,45741,53.0529,0.0008314,15.4140987,436.2772097973966,447.6176461842597,1 45741U 20038M   26029.58335647  .00136401  00000+0  31634-2 0  9997,2 45741  53.0529  43.4923 0008314  38.5693 255.7764 15.41409870  5923
STARLINK-1500,45744,53.0383,0.0004204,15.32515722,465.43120294748496,471.1876951218346,1 45744U 20038Q   26029.25130006  .00038825  00000+0  12245-2 0  9994,2 45744  53.0383  17.4263 0004204  97.2701 262.8777 15.32515722310766
STARLINK-1504,45746,53.0258,0.0004561,15.50367469,412.553697878001,418.7509925186914,1 45746U 20038S   26028.56147318  .00041349  00000+0  71996-3 0  9997,2 45746  53.0258 335.3656 0004561  80.3137 279.8386 15.50367469311284
STARLINK-1506,45747,53.0758,0.0004639,15.24993043,487.6198215628492,493.9928271792005,1 45747U 20038T   26029.22144046  .00052283  00000+0  20668-2 0  9995,2 45747  53.0758  24.7544 0004639 104.6429 255.5083 15.24993043310665
STARLINK-1464,45751,53.0539,0.000147,15.38680413,449.00671532202796,451.01419067320876,1 45751U 20038X   26029.58335647  .00038710  00000+0  10031-2 0  9990,2 45751  53.0539  29.9385 0001470  74.8063 152.6471 15.38680413  5735
STARLINK-1477,45754,53.052,7.04e-05,15.1183752,530.1099362882605,531.082685938466,1 45754U 20038AA  26029.26696810  .00045029  00000+0  26051-2 0  9990,2 45754  53.0520  31.8083 0000704 279.3597  80.7314 15.11837520310569
STARLINK-1478,45755,53.0551,0.000413,15.467533,423.42101003182324,429.0414181766737,1 45755U 20038AB  26029.58335647  .00141040  00000+0  27301-2 0  9993,2 45755  53.0551  25.8376 0004130  72.2057 267.9272 15.46753300  5700
STARLINK-1484,45756,53.0063,0.0004023,15.81827013,322.5772452746942,327.97080978744543,1 45756U 20038AC  26029.50003471  .00252634  00000+0  11922-2 0  9997,2 45756  53.0063 256.4795 0004023 165.6713 209.7055 15.81827013  6013
STARLINK-1493,45759,53.0532,0.0001344,15.33266566,465.15425803362814,466.9939819826868,1 45759U 20038AF  26029.50003471  .01665330  00000+0  46261-1 0  9995,2 45759  53.0532  30.9374 0001344 102.0171 314.1834 15.33266566  5765
STARLINK-1494,45760,53.0522,0.0002033,15.66426088,367.7687415825694,370.5121845990616,1 45760U 20038AG  26028.13469265  .00089060  00000+0  83687-3 0  9996,2 45760  53.0522 352.0929 0002033 109.7450 250.3785 15.66426088311028
STARLINK-1502,45764,53.0533,0.0001186,15.2494009,490.1506623159685,491.7800133905066,1 45764U 20038AL  26029.50003471  .01332565  00000+0  48714-1 0  9997,2 45764  53.0533  31.4741 0001186  70.4384 253.0594 15.24940090  5826
STARLINK-1470,45772,53.049,6.62e-05,15.24546275,491.6934076564339,492.603033419633,1 45772U 20038AU  26028.92350648  .00032403  00000+0  13070-2 0  9997,2 45772  53.0490 358.3698 0000662  78.9033 281.2039 15.24546275311005
STARLINK-1482,45773,53.0867,0.000135,15.14091364,522.806727451607,524.6702338313808,1 45773U 20038AV  26029.50003471  .01159218  00000+0  57844-1 0  9993,2 45773  53.0867  12.4159 0001350  50.0926 341.2752 15.14091364  5777
STARLINK-1496,45780,53.0546,0.0007583,15.41056287,437.8181361448378,448.16305825875406,1 45780U 20038BC  26029.50003471  .00142198  00000+0  33344-2 0  9999,2 45780  53.0546   4.3449 0007583  67.0192 312.5104 15.41056287  5865
STARLINK-1497,45781,53.0254,0.0006613,15.97938114,275.7370654706074,284.5433028743928,1 45781U 20038BD  26029.50003471  .00682854  21539-3  14663-2 0  9995,2 45781  53.0254 276.2691 0006613 159.7755  31.3421 15.97938114  6024
